STARLINK-36601          
1 67618U 26020B   26041.91667824 -.00054680  00000+0 -25831-3 0  9990
2 67618  42.9986 304.9452 0001821 265.9253 322.4143 15.82054091  3084
STARLINK-36119          
1 67619U 26020C   26041.91667824  .00003830  00000+0  26566-4 0  9997
2 67619  42.9989 304.9695 0002143 276.8260 301.5450 15.76314019  3085
STARLINK-36607          
1 67620U 26020D   26041.91667824 -.00062348  00000+0 -29506-3 0  9996
2 67620  42.9985 304.9195 0001882 283.6209 314.8334 15.82060170  3087
STARLINK-36615          
1 67621U 26020E   26041.91667824 -.00069599  00000+0 -32985-3 0  9997
2 67621  42.9986 304.9292 0001835 267.5386 327.1938 15.82066424  3087
STARLINK-36614          
1 67622U 26020F   26041.91667824 -.01928079  00000+0 -11804-1 0  9991
2 67622  42.9989 304.9179 0001310 258.2196 340.7409 15.79536458  3088
STARLINK-36600          
1 67623U 26020G   26041.91667824  .00030897  00000+0  19224-3 0  9997
2 67623  42.9989 304.9383 0001503 269.0482 321.7708 15.76341390  3085
STARLINK-36439          
1 67624U 26020H   26041.91667824 -.00064142  00000+0 -30376-3 0  9991
2 67624  42.9986 304.8920 0001603 260.8457 348.4917 15.82055553  3089
STARLINK-36438          
1 67625U 26020J   26041.91667824 -.01927631  00000+0 -11702-1 0  9994
2 67625  42.9989 304.8878 0001473 252.7097 358.1867 15.79716474  3084
STARLINK-36436          
1 67626U 26020K   26041.91667824 -.00092395  00000+0 -43968-3 0  9995
2 67626  43.0002 304.8629 0001737 284.9905 335.9583 15.82075951  3085
STARLINK-36502          
1 67627U 26020L   26041.91667824 -.00051282  00000+0 -24206-3 0  9990
2 67627  42.9986 304.8742 0001704 267.5773 349.2246 15.82049199  3084
STARLINK-36532          
1 67628U 26020M   26041.91667824 -.00055293  00000+0 -26122-3 0  9996
2 67628  42.9986 304.8456 0002124 272.8138 355.1819 15.82054924  3082
STARLINK-36367          
1 67629U 26020N   26041.91667824  .00050298  00000+0  24016-3 0  9995
2 67629  42.9987 304.8525 0001393 247.8715  17.3316 15.82002860  3082
